SAOCOM 1A               
1 43641U 18076A   26068.96299391  .00001305  00000+0  17043-3 0  9996
2 43641  97.8895 257.1316 0001339  83.6952 276.4413 14.82173643401405
H-2A R/B                
1 43682U 18084L   26069.57677843  .00023504  00000+0  55790-3 0  9996
2 43682  98.8729 287.1541 0025388  22.2756 337.9583 15.41390798405910
SAOCOM 1B               
1 46265U 20059A   26069.80438700  .00000987  00000+0  13051-3 0  9998
2 46265  97.8894 257.0587 0001361  85.6378 274.4991 14.82149543298918
CSS (TIANHE)            
1 48274U 21035A   26069.80341873  .00031070  00000+0  36544-3 0  9998
2 48274  41.4661 201.3850 0006965 279.9751  80.0301 15.60727089277782
COSMOS 2550             
1 48865U 21056A   26069.88668778 -.00000188  00000+0  10455-6 0  9994
2 48865  67.1455  37.3105 0008424 269.5139  90.5050 15.33830688263648
CZ-2C R/B               
1 52794U 22058K   26069.86244331  .00040089  00000+0  58180-3 0  9993
2 52794  50.1895 312.2564 0042139 205.8829 154.0034 15.54329548210313
CZ-2C R/B               
1 54039U 22132E   26069.52488912  .00044069  00000+0  50113-3 0  9998
2 54039  97.2967  72.8671 0020627  88.6324 271.7296 15.61920631190505
GSLV R/B                
1 54149U 22138AN  26069.79051096  .00003930  00000+0  33937-3 0  9991
2 54149  87.3873 165.9935 0023121 142.9300 217.3534 14.96783710184090
XRISM                   
1 57800U 23137A   26069.56513868  .00006343  00000+0  35953-3 0  9994
2 57800  31.0015 278.0015 0007984  47.3148 312.8162 15.11513445137925
ACS3                    
1 59588U 24077B   26069.43402874  .00016735  00000+0  13462-1 0  9998
2 59588  97.2065  10.3783 0060090  74.8665 285.9135 13.89631389 94309
SZ-21 MODULE            
1 66515U 25246C   26069.39180920  .00046134  00000+0  39495-3 0  9997
2 66515  41.4733 199.0379 0001321 300.4317  59.6394 15.68612654 18188
